HORYU-4                 
1 41340U 16012D   20044.71668872  .00000419  00000-0  25003-4 0  9995
2 41340  31.0060  46.1055 0013894 350.8234   9.2147 15.01415636219114
E-ST@R-II               
1 41459U 16025D   20044.83709435  .00000753  00000-0  42728-4 0  9998
2 41459  98.0955 148.4498 0164701 270.9951  87.2413 15.06029481208686
AAUSAT 4                
1 41460U 16025E   20044.89318513  .00002253  00000-0  11501-3 0  9990
2 41460  98.0917 150.4184 0154379 260.9822  97.3909 15.08172063208866
DIWATA-1                
1 41463U 98067HT  20044.62011664  .00086335  14529-4  16328-3 0  9997
2 41463  51.6223  67.8168 0003234  41.5152  56.1088 16.00736695217916
BEESAT-4                
1 41619U 16040W   20044.72692955  .00001030  00000-0  45821-4 0  9995
2 41619  97.3373 107.1242 0009562 256.8548 103.1622 15.23680189190404
CANX-7                  
1 41788U 16059F   20044.83136904  .00007736  00000-0  11070-2 0  9997
2 41788  98.2527 129.7172 0022245 331.3461  28.6499 14.76730513181418
RAVAN                   
1 41849U 16067B   20044.87466501 -.00000318  00000-0 -21432-4 0  9993
2 41849  97.9247 152.7067 0007759 304.6470  55.4020 14.98446247177961
CELTEE 1                
1 41850U 16067C   20044.82425089  .00000271  00000-0  28791-4 0  9997
2 41850  97.9191 150.7380 0007546 307.4473  52.6062 14.97116317177859
OPTICUBE 04             
1 41851U 16067D   20044.80074061 -.00000477  00000-0 -36280-4 0  9998
2 41851  97.9190 150.3986 0007939 311.9454  48.1090 14.96882657177837
AEROCUBE 8D             
1 41852U 16067E   20044.81451563  .00000069  00000-0  11321-4 0  9990
2 41852  97.9192 150.2416 0008609 309.6819  50.3642 14.96836087177813
AEROCUBE 8C             
1 41853U 16067F   20044.84316334  .00000663  00000-0  63192-4 0  9993
2 41853  97.9198 150.1865 0008592 313.3061  46.7443 14.96806259177815
PROMETHEUS 2-1          
1 41854U 16067G   20044.83782746  .00000905  00000-0  83736-4 0  9992
2 41854  97.9206 150.4347 0008808 311.1481  48.8980 14.97085881177827
PROMETHEUS 2-3          
1 41855U 16067H   20044.83908557  .00000900  00000-0  83267-4 0  9997
2 41855  97.9209 150.4622 0008963 311.6555  48.3899 14.97095593177821
INS-1B                  
1 41954U 17008G   20044.84301181  .00000923  00000-0  40419-4 0  9991
2 41954  97.3707 111.3965 0009727  30.1243 330.0552 15.24469953166382
BGUSAT                  
1 41999U 17008BD  20044.65832554  .00001633  00000-0  64396-4 0  9991
2 41999  97.3804 114.6935 0008845  41.8398 318.3516 15.26982212165908
DIDO-2                  
1 42000U 17008BE  20044.85088723  .00000611  00000-0  27876-4 0  9995
2 42000  97.3716 111.9443 0009606  47.4576 312.7471 15.24270192165783
PEASSS                  
1 42015U 17008BV  20044.85265512  .00000837  00000-0  36020-4 0  9995
2 42015  97.3734 113.3059 0007536  53.5776 306.6156 15.25335613166355
AL-FARABI 1             
1 42016U 17008BW  20044.74259829  .00001115  00000-0  46012-4 0  9990
2 42016  97.3760 114.0472 0007393  53.1543 307.0372 15.26098314166508
NAYIF-1 (EO-88)         
1 42017U 17008BX  20044.85566522  .00001094  00000-0  45136-4 0  9996
2 42017  97.3754 114.1706 0007405  52.6951 307.4961 15.26136127166541
NSIGHT                  
1 42726U 98067MF  20044.52928002  .00064028  00000-0  22738-3 0  9994
2 42726  51.6294 150.3630 0004401   3.9126 356.1913 15.88338539155684
UCLSAT                  
1 42765U 17036A   20044.81469257  .00000919  00000-0  41663-4 0  9996
2 42765  97.3195 102.3026 0013035 103.7903 256.4786 15.23235834147601
LITUANICASAT-2          
1 42768U 17036D   20044.89425936  .00001472  00000-0  64225-4 0  9997
2 42768  97.3243 102.1814 0016512  95.2843 265.0279 15.23591159146878
AALTO-1                 
1 42775U 17036L   20044.64784027  .00000556  00000-0  27553-4 0  9992
2 42775  97.3174 100.2975 0015606  97.6312 262.6697 15.21655326146698
URSA MAIOR              
1 42776U 17036M   20044.84859291  .00000597  00000-0  29205-4 0  9992
2 42776  97.3185 100.7259 0015422  96.8962 263.4029 15.21818191146733
COMPASS 2               
1 42777U 17036N   20044.84261854  .00001148  00000-0  50853-4 0  9991
2 42777  97.3236 102.5851 0014067  96.2997 263.9843 15.23537057146825
DIAMOND RED             
1 42783U 17036U   20044.82046900  .00000720  00000-0  33877-4 0  9991
2 42783  97.3195 101.6993 0013736 105.4270 254.8485 15.22598458146789
PEGASUS                 
1 42784U 17036V   20044.88094313  .00000806  00000-0  37184-4 0  9999
2 42784  97.3199 102.1046 0013615 104.4494 255.8255 15.22945712146811
DIAMOND GREEN           
1 42785U 17036W   20044.68783064  .00000743  00000-0  34863-4 0  9997
2 42785  97.3197 101.6015 0013651 106.3863 253.8876 15.22600086146832
DIAMOND BLUE            
1 42786U 17036X   20044.81847767  .00000698  00000-0  32931-4 0  9997
2 42786  97.3196 101.7251 0013482 106.1631 254.1091 15.22598253146855
NUDTSAT                 
1 42787U 17036Y   20044.90830261  .00001399  00000-0  60323-4 0  9994
2 42787  97.3243 103.2550 0012493  96.5431 263.7230 15.24125438146729
SUCHAI                  
1 42788U 17036Z   20044.68533028  .00001007  00000-0  45078-4 0  9997
2 42788  97.3206 102.3925 0013172 103.8785 256.3919 15.23443571146883
SKCUBE                  
1 42789U 17036AA  20044.85074690  .00000910  00000-0  41174-4 0  9997
2 42789  97.3201 102.4421 0013046 103.4803 256.7889 15.23308158146823
VZLUSAT-1               
1 42790U 17036AB  20044.83075552  .00001238  00000-0  53730-4 0  9990
2 42790  97.3222 103.1754 0012569 102.1245 258.1401 15.24114475146868
ROBUSTA-1B              
1 42792U 17036AD  20044.68836236  .00000977  00000-0  43786-4 0  9998
2 42792  97.3203 102.4973 0012621 104.4096 255.8542 15.23490586146827
CICERO 6                
1 42793U 17036AE  20044.88840314  .00000602  00000-0  28565-4 0  9996
2 42793  97.3182 102.2496 0011908 105.6190 254.6362 15.22930232146909
D-SAT                   
1 42794U 17036AF  20044.83857572  .00000223  00000-0  24496-4 0  9994
2 42794  97.5103  83.5560 0127651  61.2754 300.1223 14.91217450144124
CORVUS BC2              
1 42846U 17042X   20044.90660219  .00000267  00000-0  31543-4 0  9996
2 42846  97.5406 293.9450 0009100 342.9484  17.1429 14.92059492140838
CORVUS BC1              
1 42847U 17042Y   20044.91072434  .00000213  00000-0  26139-4 0  9990
2 42847  97.5408 294.0962 0008740 342.5039  17.5878 14.92160430140839
MIRATA                  
1 43015U 17073C   20044.89798620  .00000731  00000-0  61327-4 0  9994
2 43015  97.7228 321.8403 0255457  94.7728 268.2703 14.79399485120804
MAKERSAT 0              
1 43016U 17073D   20044.75775660  .00000495  00000-0  43210-4 0  9997
2 43016  97.7264 321.9034 0258019  96.0094 267.0584 14.79036853120760
ASTERIA                 
1 43020U 98067NH  20044.78652210  .00069000  00000-0  25713-3 0  9996
2 43020  51.6403 161.5221 0002412 341.7983  18.2935 15.87343800127740
DELLINGR (RBLE)         
1 43021U 98067NJ  20044.67064844  .00009588  00000-0  91678-4 0  9994
2 43021  51.6360 196.0154 0001543 300.2527  59.8316 15.67476378127276
AEROCUBE 7B (OCSD B)    
1 43042U 17071F   20044.89927991  .00002780  00000-0  72055-4 0  9993
2 43042  51.6386 317.3380 0003907 317.3698  42.6984 15.42688530123141
AEROCUBE 7C (OCSD C)    
1 43043U 17071G   20044.90068760  .00002832  00000-0  73274-4 0  9998
2 43043  51.6386 317.3622 0004174 321.7625  38.3065 15.42666438123119
CHEFSAT                 
1 43044U 17071H   20044.91641184  .00005407  00000-0  11539-3 0  9993
2 43044  51.6386 306.4331 0003762 324.6723  35.4015 15.46559738123266
ASGARDIA 1              
1 43049U 17071N   20044.89945680  .00002656  00000-0  69095-4 0  9997
2 43049  51.6397 316.6616 0002036 348.8375  11.2565 15.42756601123127
ISARA                   
1 43050U 17071P   20044.89263045  .00004225  00000-0  94433-4 0  9995
2 43050  51.6369 308.4358 0001769 351.0539   9.0416 15.45796403123239
PROPCUBE 2 (FAUNA)      
1 43052U 17071R   20044.91947588  .00002646  00000-0  68025-4 0  9994
2 43052  51.6392 315.3144 0001910 345.3147  14.7783 15.43139225123136
CORVUS BC3              
1 43118U 18004H   20044.87830101  .00000565  00000-0  26871-4 0  9992
2 43118  97.4587 116.0941 0011736 125.1152 235.1186 15.23172780116039
MICROMAS-2A             
1 43131U 18004W   20044.85265028  .00001404  00000-0  59391-4 0  9991
2 43131  97.4624 117.3874 0010635 124.8728 235.3511 15.24844817116107
SPACEBEE-4              
1 43139U 18004AE  20044.85319262  .00001843  00000-0  74576-4 0  9998
2 43139  97.4648 118.2895 0010019 126.1537 234.0630 15.25955358116149
SPACEBEE-3              
1 43140U 18004AF  20044.86473842  .00002172  00000-0  85461-4 0  9997
2 43140  97.4661 118.8069 0009815 125.5143 234.7012 15.26702370116183
SPACEBEE-2              
1 43141U 18004AG  20044.86722900  .00002439  00000-0  94895-4 0  9997
2 43141  97.4672 118.9940 0009783 125.0564 235.1593 15.26958769116196
SPACEBEE-1              
1 43142U 18004AH  20044.86138802  .00002575  00000-0  99152-4 0  9992
2 43142  97.4675 119.1814 0009771 125.1321 235.0835 15.27250074116195
CICERO 7                
1 43143U 18004AJ  20044.85881877  .00001273  00000-0  54000-4 0  9996
2 43143  97.4607 117.5966 0008678 131.7283 228.4698 15.24927102116122
GOMX-4B                 
1 43196U 18015E   20044.81287142  .00000302  00000-0  15326-4 0  9997
2 43196  97.4191 174.4697 0018661 178.8797 181.2484 15.24141852112918
GOMX-4A                 
1 43197U 18015F   20044.86297958  .00000862  00000-0  38035-4 0  9992
2 43197  97.4173 174.5730 0019070 178.4578 300.6954 15.24322129112935
1KUNS-PF                
1 43466U 98067NP  20044.83514361  .00045053  00000-0  24216-3 0  9999
2 43466  51.6316 185.6753 0001605 318.4950  41.5930 15.79762346100681
UBAKUSAT                
1 43467U 98067NQ  20044.85034909  .00017094  00000-0  14695-3 0  9991
2 43467  51.6340 200.1448 0001550 264.3115  95.7705 15.69457737100500
